NORAD_CAT_ID,OBJECT_NAME,OBJECT_TYPE,EPOCH,MEAN_MOTION,ECCENTRICITY,INCLINATION,RA_OF_ASC_NODE,ARG_OF_PERICENTER,MEAN_ANOMALY,BSTAR,MEAN_MOTION_DOT,MEAN_MOTION_DDOT,TLE_LINE0,TLE_LINE1,TLE_LINE2,SEMIMAJOR_AXIS,PERIOD,APOGEE,PERIGEE,DECAYED
51863.0,STARLINK-3555,PAYLOAD,2022-04-16 22:00:01,15.60509848,0.000105,53.2174,285.2115,105.0468,294.4919,-0.0092555,-0.00712162,0.0,0 STARLINK-3555,1 51863U 22022M   22106.91668981 -.00712162  00000-0 -92555-2 0  9999,2 51863  53.2174 285.2115 0001050 105.0468 294.4919 15.60509848  8182,6764.32,92.278,386.896,385.475,0.0
51863.0,STARLINK-3555,PAYLOAD,2022-04-17 14:00:01,15.59491067,0.0001252999999999,53.2176,281.972,82.279,103.3258,-0.0096434,-0.00713403,0.0,0 STARLINK-3555,1 51863U 22022M   22107.58334491 -.00713403  00000-0 -96434-2 0  9998,2 51863  53.2176 281.9720 0001253  82.2790 103.3258 15.59491067  3706,6767.266,92.338,389.979,388.283,0.0
51863.0,STARLINK-3555,PAYLOAD,2022-04-17 22:00:00,15.58978648,0.0001219,53.2175,280.3565,82.3562,175.3944,-0.0097709,-0.00709174,0.0,0 STARLINK-3555,1 51863U 22022M   22107.91667824 -.00709174  00000-0 -97709-2 0  9990,2 51863  53.2175 280.3565 0001219  82.3562 175.3944 15.58978648  3698,6768.749,92.368,391.439,389.789,0.0
51863.0,STARLINK-3555,PAYLOAD,2022-04-18 06:00:00,15.58471868,0.0001068,53.2175,278.7388,83.5096,245.7743,-0.010046,-0.00714672,0.0,0 STARLINK-3555,1 51863U 22022M   22108.25001157 -.00714672  00000-0 -10046-1 0  9996,2 51863  53.2175 278.7388 0001068  83.5096 245.7743 15.58471868  8392,6770.215999999999,92.398,392.804,391.358,0.0
51863.0,STARLINK-3555,PAYLOAD,2022-04-18 14:00:01,15.57963637,0.0001069,53.2177,277.1248,75.0322,325.1712,-0.010283,-0.00717318,0.0,0 STARLINK-3555,1 51863U 22022M   22108.58334491 -.00717318  00000-0 -10283-1 0  9995,2 51863  53.2177 277.1248 0001069  75.0322 325.1712 15.57963637  3709,6771.688,92.428,394.277,392.829,0.0
51863.0,STARLINK-3555,PAYLOAD,2022-04-18 22:00:00,15.57447714,0.0001152,53.2172,275.5129,71.6467,38.8657,-0.010326,-0.00707319,0.0,0 STARLINK-3555,1 51863U 22022M   22108.91667824 -.00707319  00000-0 -10326-1 0  9999,2 51863  53.2172 275.5129 0001152  71.6467  38.8657 15.57447714  3708,6773.184,92.459,395.829,394.268,0.0
51863.0,STARLINK-3555,PAYLOAD,2022-04-19 06:00:00,15.56940282,0.0001196,53.2173,273.8986,87.0572,93.1503,-0.010587,-0.00711142,0.0,0 STARLINK-3555,1 51863U 22022M   22109.25001157 -.00711142  00000-0 -10587-1 0  9996,2 51863  53.2173 273.8986 0001196  87.0572  93.1503 15.56940282  8556,6774.655,92.489,397.331,395.71,0.0
51863.0,STARLINK-3555,PAYLOAD,2022-04-19 14:00:01,15.56431339,0.0001276,53.2175,272.2884,76.4611,172.8279,-0.010821,-0.00712972,0.0,0 STARLINK-3555,1 51863U 22022M   22109.58334491 -.00712972  00000-0 -10821-1 0  9995,2 51863  53.2175 272.2884 0001276  76.4611 172.8279 15.56431339  3708,6776.132,92.519,398.862,397.132,0.0
51863.0,STARLINK-3555,PAYLOAD,2022-04-20 06:00:00,15.55410337,0.0001009,53.2175,269.0697,81.7784,303.8372,-0.011213,-0.00711314,0.0,0 STARLINK-3555,1 51863U 22022M   22110.25001157 -.00711314  00000-0 -11213-1 0  9996,2 51863  53.2175 269.0697 0001009  81.7784 303.8372 15.55410337  8707,6779.097,92.58,401.646,400.278,0.0
51863.0,STARLINK-3555,PAYLOAD,2022-04-20 14:00:01,15.54902594,0.0001147,53.2175,267.4634,72.734,20.1241,-0.011488,-0.00714879,0.0,0 STARLINK-3555,1 51863U 22022M   22110.58334491 -.00714879  00000-0 -11488-1 0  9995,2 51863  53.2175 267.4634 0001147  72.7340  20.1241 15.54902594  3698,6780.573,92.61,403.216,401.66,0.0
51863.0,STARLINK-3555,PAYLOAD,2022-04-20 22:00:00,15.54389167,0.000119,53.2173,265.8584,88.757,70.7324,-0.011595,-0.00708573,0.0,0 STARLINK-3555,1 51863U 22022M   22110.91667824 -.00708573  00000-0 -11595-1 0  9994,2 51863  53.2173 265.8584 0001190  88.7570  70.7324 15.54389167  3690,6782.066,92.641,404.73800000000006,403.124,0.0
51863.0,STARLINK-3555,PAYLOAD,2022-04-21 06:00:00,15.53880093,0.0001228,53.2175,264.2515,80.4391,145.0695,-0.011838,-0.00709898,0.0,0 STARLINK-3555,1 51863U 22022M   22111.25001157 -.00709898  00000-0 -11838-1 0  9994,2 51863  53.2175 264.2515 0001228  80.4391 145.0695 15.53880093  8865,6783.547,92.671,406.245,404.579,0.0
51863.0,STARLINK-3555,PAYLOAD,2022-04-21 14:00:01,15.53371665,0.0001229,53.2177,262.6492,72.2313,218.6814,-0.01211,-0.00712571,0.0,0 STARLINK-3555,1 51863U 22022M   22111.58334491 -.00712571  00000-0 -12110-1 0  9996,2 51863  53.2177 262.6492 0001229  72.2313 218.6814 15.53371665  3705,6785.026999999999,92.702,407.726,406.0580000000001,0.0
51863.0,STARLINK-3555,PAYLOAD,2022-04-21 22:00:00,15.52861374,0.000105,53.2173,261.0478,89.5549,266.1496,-0.01231,-0.00711084,0.0,0 STARLINK-3555,1 51863U 22022M   22111.91667824 -.00711084  00000-0 -12310-1 0  9992,2 51863  53.2173 261.0478 0001050  89.5549 266.1496 15.52861374  3717,6786.513000000001,92.732,409.091,407.666,0.0
51863.0,STARLINK-3555,PAYLOAD,2022-04-22 06:00:00,15.52350131,0.0001026,53.2174,259.4448,91.7389,328.1475,-0.012525,-0.00710258,0.0,0 STARLINK-3555,1 51863U 22022M   22112.25001157 -.00710258  00000-0 -12525-1 0  9991,2 51863  53.2174 259.4448 0001026  91.7389 328.1475 15.52350131  9015,6788.003000000002,92.763,410.565,409.172,0.0
51863.0,STARLINK-3555,PAYLOAD,2022-04-22 14:00:01,15.51841113,0.0001358,53.2174,257.8462,56.7575,66.6948,-0.012786,-0.00711747,0.0,0 STARLINK-3555,1 51863U 22022M   22112.58334491 -.00711747  00000-0 -12786-1 0  9990,2 51863  53.2174 257.8462 0001358  56.7575  66.6948 15.51841113  3713,6789.488,92.793,412.275,410.431,0.0
51863.0,STARLINK-3555,PAYLOAD,2022-04-23 06:00:02,15.50820494,0.0001239,53.2173,254.6489,98.2995,150.5139,-0.013231,-0.00719153,0.0,0 STARLINK-3555,1 51863U 22022M   22113.25002315 -.00719153  00000-0 -13231-1 0  9997,2 51863  53.2173 254.6489 0001239  98.2995 150.5139 15.50820494  9170,6792.465999999999,92.854,415.173,413.49,0.0
51863.0,STARLINK-3555,PAYLOAD,2022-04-23 14:00:01,15.50083882,0.0001477,53.2169,253.056,84.2769,226.2933,-0.0049983999999999,-0.0027631,0.0,0 STARLINK-3555,1 51863U 22022M   22113.58334491 -.00276310  00000-0 -49984-2 0  9994,2 51863  53.2169 253.0560 0001477  84.2769 226.2933 15.50083882  3670,6794.618,92.898,417.486,415.479,0.0
51863.0,STARLINK-3555,PAYLOAD,2022-04-23 20:00:01,15.49885527,0.0001216,53.2175,251.8603,84.9018,181.471,1.5821e-05,4.47e-06,0.0,0 STARLINK-3555,1 51863U 22022M   22113.83334491  .00000447  00000-0  15821-4 0  9991,2 51863  53.2175 251.8603 0001216  84.9018 181.4710 15.49885527  9266,6795.198,92.91,417.889,416.236,0.0
51863.0,STARLINK-3555,PAYLOAD,2022-04-24 14:00:01,15.49887899,0.0001107,53.2133,248.2832,56.71,76.7004,-0.00014218,-8.513e-05,0.0,0 STARLINK-3555,1 51863U 22022M   22114.58334491 -.00008513  00000-0 -14218-3 0  9996,2 51863  53.2133 248.2832 0001107  56.7100  76.7004 15.49887899  3699,6795.191,92.91,417.8080000000001,416.30300000000005,0.0
51863.0,STARLINK-3555,PAYLOAD,2022-04-25 06:00:00,15.49880675,0.0001015,53.2128,245.0953,60.1374,195.1171,0.0011380999999999,0.00064667,0.0,0 STARLINK-3555,1 51863U 22022M   22115.25001157  .00064667  00000-0  11381-2 0  9998,2 51863  53.2128 245.0953 0001015  60.1374 195.1171 15.49880675  9481,6795.212,92.91,417.767,416.387,0.0
51863.0,STARLINK-3555,PAYLOAD,2022-04-25 14:00:01,15.49930453,0.0001146,53.2128,243.5037,53.3153,262.8762,-0.00012293,-7.433e-05,0.0,0 STARLINK-3555,1 51863U 22022M   22115.58334491 -.00007433  00000-0 -12293-3 0  9998,2 51863  53.2128 243.5037 0001146  53.3153 262.8762 15.49930453  3719,6795.066,92.907,417.71,416.153,0.0
51863.0,STARLINK-3555,PAYLOAD,2022-04-25 22:00:00,15.49942464,0.0001198,53.2124,241.9106,47.8767,329.2725,0.0001094,5.775e-05,0.0,0 STARLINK-3555,1 51863U 22022M   22115.91667824  .00005775  00000-0  10940-3 0  9996,2 51863  53.2124 241.9106 0001198  47.8767 329.2725 15.49942464  9583,6795.031,92.907,417.71,416.082,0.0
51863.0,STARLINK-3555,PAYLOAD,2022-04-26 14:00:01,15.499170499999998,0.0001402,53.2129,238.7237,57.7652,81.405,-0.00016923,-0.00010055,0.0,0 STARLINK-3555,1 51863U 22022M   22116.58335648 -.00010055  00000-0 -16923-3 0  9992,2 51863  53.2129 238.7237 0001402  57.7652  81.4050 15.49917050  9691,6795.106,92.908,417.923,416.018,0.0
51863.0,STARLINK-3555,PAYLOAD,2022-04-26 22:00:00,15.4998987,0.0001501999999999,53.2141,237.1281,56.4791,143.5609,-0.0039578,-0.00219714,0.0,0 STARLINK-3555,1 51863U 22022M   22116.91667824 -.00219714  00000-0 -39578-2 0  9996,2 51863  53.2141 237.1281 0001502  56.4791 143.5609 15.49989870  3668,6794.893,92.904,417.778,415.737,0.0
51863.0,STARLINK-3555,PAYLOAD,2022-04-27 06:00:00,15.49853648,0.0001534,53.2135,235.5355,65.1187,195.8568,0.0011178,0.00063435,0.0,0 STARLINK-3555,1 51863U 22022M   22117.25001157  .00063435  00000-0  11178-2 0  9996,2 51863  53.2135 235.5355 0001534  65.1187 195.8568 15.49853648  9793,6795.291,92.912,418.198,416.11300000000006,0.0
51863.0,STARLINK-3555,PAYLOAD,2022-04-27 14:00:01,15.49895085,0.0001712,53.2136,233.9441,58.6744,263.2645,3.1668e-05,1.346e-05,0.0,0 STARLINK-3555,1 51863U 22022M   22117.58335648  .00001346  00000-0  31668-4 0  9998,2 51863  53.2136 233.9441 0001712  58.6744 263.2645 15.49895085  3652,6795.17,92.91,418.198,415.871,0.0
51863.0,STARLINK-3555,PAYLOAD,2022-04-27 22:00:00,15.49940833,0.0001621,53.2137,232.3508,52.714,330.0767,-0.0012312999999999,-0.00069854,0.0,0 STARLINK-3555,1 51863U 22022M   22117.91667824 -.00069854  00000-0 -12313-2 0  9993,2 51863  53.2137 232.3508 0001621  52.7140 330.0767 15.49940833  9896,6795.036,92.907,418.002,415.8,0.0
51863.0,STARLINK-3555,PAYLOAD,2022-04-28 14:00:01,15.49886467,0.0001591,53.2138,229.1648,49.9625,94.6988,0.00011453,6.054e-05,0.0,0 STARLINK-3555,1 51863U 22022M   22118.58334491  .00006054  00000-0  11453-3 0  9994,2 51863  53.2138 229.1648 0001591  49.9625  94.6988 15.49886467 10003,6795.195,92.91,418.141,415.979,0.0
